[{"OBJECT_NAME":"OBJECT V","OBJECT_ID":"2025-313V","EPOCH":"2026-03-09T22:24:14.678208","MEAN_MOTION":15.21825421,"ECCENTRICITY":0.00137871,"INCLINATION":97.401,"RA_OF_ASC_NODE":145.2021,"ARG_OF_PERICENTER":3.3713,"MEAN_ANOMALY":356.7614,"EPHEMERIS_TYPE":0,"CLASSIFICATION_TYPE":"U","NORAD_CAT_ID":67267,"ELEMENT_SET_NO":999,"REV_AT_EPOCH":1085,"BSTAR":0.00061746121,"MEAN_MOTION_DOT":0.00014007,"MEAN_MOTION_DDOT":0},{"OBJECT_NAME":"UNKNOWN","OBJECT_ID":"","EPOCH":"2026-03-05T07:23:30.759360","MEAN_MOTION":15.16846688,"ECCENTRICITY":0.00030538,"INCLINATION":98.6694,"RA_OF_ASC_NODE":94.3286,"ARG_OF_PERICENTER":181.4323,"MEAN_ANOMALY":178.6899,"EPHEMERIS_TYPE":0,"CLASSIFICATION_TYPE":"U","NORAD_CAT_ID":270304,"ELEMENT_SET_NO":999,"REV_AT_EPOCH":26068,"BSTAR":0.007049134,"MEAN_MOTION_DOT":0.00141256,"MEAN_MOTION_DDOT":0}]
